start=new Date('2022-06-14T00:00:00.000Z').valueOf();
sats=[{"SITE":"AFETR","EPHEMERIS_TYPE":"0","DECAY_DATE":null,"REF_FRAME":"TEME","OBJECT_TYPE":"PAYLOAD","TLE_LINE2":"2 46549  53.0552 185.4566 0001491  64.2345 295.8798 15.06393726 93725","ELEMENT_SET_NO":"999","COUNTRY_CODE":"US","FILE":"3494620","NORAD_CAT_ID":"46549","SEMIMAJOR_AXIS":"6925.368","OBJECT_ID":"2020-070T","INCLINATION":"53.0552","MEAN_MOTION_DDOT":"0.0000000000000","LAUNCH_DATE":"2020-10-06","PERIOD":"95.593","TIME_SYSTEM":"UTC","MEAN_MOTION_DOT":"0.00001361","REV_AT_EPOCH":"9372","ARG_OF_PERICENTER":"64.2345","CENTER_NAME":"EARTH","MEAN_MOTION":"15.06393726","MEAN_ELEMENT_THEORY":"SGP4","GP_ID":"206059697","BSTAR":"0.00011029000000","APOAPSIS":"548.265","OBJECT_NAME":"STARLINK-1700","EPOCH":"2022-06-13T10:35:31.166016","RCS_SIZE":"LARGE","TLE_LINE1":"1 46549U 20070T   22164.44133294  .00001361  00000-0  11029-3 0  9999","RA_OF_ASC_NODE":"185.4566","MEAN_ANOMALY":"295.8798","PERIAPSIS":"546.200","CLASSIFICATION_TYPE":"U","ECCENTRICITY":"0.00014910"},{"LAUNCH_DATE":"2020-10-06","TIME_SYSTEM":"UTC","MEAN_MOTION_DOT":"0.00001210","PERIOD":"95.593","NORAD_CAT_ID":"46550","FILE":"3494620","SEMIMAJOR_AXIS":"6925.379","OBJECT_ID":"2020-070U","INCLINATION":"53.0546","MEAN_MOTION_DDOT":"0.0000000000000","TLE_LINE2":"2 46550  53.0546 185.8288 0001996  42.8409 317.2735 15.06390189 93717","OBJECT_TYPE":"PAYLOAD","ELEMENT_SET_NO":"999","COUNTRY_CODE":"US","SITE":"AFETR","EPHEMERIS_TYPE":"0","REF_FRAME":"TEME","DECAY_DATE":null,"MEAN_ANOMALY":"317.2735","PERIAPSIS":"545.861","ECCENTRICITY":"0.00019960","CLASSIFICATION_TYPE":"U","OBJECT_NAME":"STARLINK-1701","APOAPSIS":"548.626","RA_OF_ASC_NODE":"185.8288","EPOCH":"2022-06-13T08:38:44.676384","RCS_SIZE":"LARGE","TLE_LINE1":"1 46550U 20070U   22164.36023931  .00001210  00000-0  10016-3 0  9996","MEAN_MOTION":"15.06390189","CENTER_NAME":"EARTH","BSTAR":"0.00010016000000","GP_ID":"206059448","MEAN_ELEMENT_THEORY":"SGP4","ARG_OF_PERICENTER":"42.8409","REV_AT_EPOCH":"9371"},{"INCLINATION":"53.0537","OBJECT_ID":"2020-070W","MEAN_MOTION_DDOT":"0.0000000000000","FILE":"3494620","NORAD_CAT_ID":"46552","SEMIMAJOR_AXIS":"6925.370","PERIOD":"95.593","TIME_SYSTEM":"UTC","MEAN_MOTION_DOT":"0.00001309","LAUNCH_DATE":"2020-10-06","DECAY_DATE":null,"REF_FRAME":"TEME","SITE":"AFETR","EPHEMERIS_TYPE":"0","COUNTRY_CODE":"US","OBJECT_TYPE":"PAYLOAD","TLE_LINE2":"2 46552  53.0537 170.6950 0001674  57.9666 302.1485 15.06393000 93936","ELEMENT_SET_NO":"999","EPOCH":"2022-06-13T09:15:14.155200","TLE_LINE1":"1 46552U 20070W   22164.38558050  .00001309  00000-0  10680-3 0  9991","RCS_SIZE":"LARGE","RA_OF_ASC_NODE":"170.6950","APOAPSIS":"548.394","OBJECT_NAME":"STARLINK-1649","CLASSIFICATION_TYPE":"U","ECCENTRICITY":"0.00016740","PERIAPSIS":"546.076","MEAN_ANOMALY":"302.1485","REV_AT_EPOCH":"9393","ARG_OF_PERICENTER":"57.9666","MEAN_ELEMENT_THEORY":"SGP4","GP_ID":"206058196","BSTAR":"0.00010680000000","CENTER_NAME":"EARTH","MEAN_MOTION":"15.06393000"},{"OBJECT_TYPE":"PAYLOAD","TLE_LINE2":"2 46553  53.0541 156.1846 0001732  63.2487 296.8679 15.06404516 94122","ELEMENT_SET_NO":"999","COUNTRY_CODE":"US","SITE":"AFETR","EPHEMERIS_TYPE":"0","REF_FRAME":"TEME","DECAY_DATE":null,"LAUNCH_DATE":"2020-10-06","TIME_SYSTEM":"UTC","MEAN_MOTION_DOT":"0.00001803","PERIOD":"95.592","FILE":"3494620","NORAD_CAT_ID":"46553","SEMIMAJOR_AXIS":"6925.335","OBJECT_ID":"2020-070X","INCLINATION":"53.0541","MEAN_MOTION_DDOT":"0.0000000000000","MEAN_MOTION":"15.06404516","CENTER_NAME":"EARTH","BSTAR":"0.00013990000000","MEAN_ELEMENT_THEORY":"SGP4","GP_ID":"206058946","REV_AT_EPOCH":"9412","ARG_OF_PERICENTER":"63.2487","MEAN_ANOMALY":"296.8679","PERIAPSIS":"546.000","ECCENTRICITY":"0.00017320","CLASSIFICATION_TYPE":"U","OBJECT_NAME":"STARLINK-1664","APOAPSIS":"548.399","RA_OF_ASC_NODE":"156.1846","EPOCH":"2022-06-13T06:45:56.989440","TLE_LINE1":"1 46553U 20070X   22164.28190960  .00001803  00000-0  13990-3 0  9999","RCS_SIZE":"LARGE"},{"COUNTRY_CODE":"US","OBJECT_TYPE":"PAYLOAD","TLE_LINE2":"2 46554  53.0536 170.9301 0001493  71.2732 288.8419 15.06396105 93927","ELEMENT_SET_NO":"999","REF_FRAME":"TEME","DECAY_DATE":null,"SITE":"AFETR","EPHEMERIS_TYPE":"0","TIME_SYSTEM":"UTC","MEAN_MOTION_DOT":"0.00000901","PERIOD":"95.592","LAUNCH_DATE":"2020-10-06","OBJECT_ID":"2020-070Y","INCLINATION":"53.0536","MEAN_MOTION_DDOT":"0.0000000000000","NORAD_CAT_ID":"46554","FILE":"3494620","SEMIMAJOR_AXIS":"6925.360","BSTAR":"0.00007937200000","MEAN_ELEMENT_THEORY":"SGP4","GP_ID":"206059198","MEAN_MOTION":"15.06396105","CENTER_NAME":"EARTH","REV_AT_EPOCH":"9392","ARG_OF_PERICENTER":"71.2732","ECCENTRICITY":"0.00014930","CLASSIFICATION_TYPE":"U","PERIAPSIS":"546.192","MEAN_ANOMALY":"288.8419","RA_OF_ASC_NODE":"170.9301","EPOCH":"2022-06-13T08:00:55.719072","TLE_LINE1":"1 46554U 20070Y   22164.33397823  .00000901  00000-0  79372-4 0  9998","RCS_SIZE":"LARGE","OBJECT_NAME":"STARLINK-1671","APOAPSIS":"548.259"},{"SEMIMAJOR_AXIS":"6925.329","NORAD_CAT_ID":"46556","FILE":"3494620","MEAN_MOTION_DDOT":"0.0000000000000","OBJECT_ID":"2020-070AA","INCLINATION":"53.0528","LAUNCH_DATE":"2020-10-06","PERIOD":"95.592","MEAN_MOTION_DOT":"0.00001254","TIME_SYSTEM":"UTC","EPHEMERIS_TYPE":"0","SITE":"AFETR","DECAY_DATE":null,"REF_FRAME":"TEME","ELEMENT_SET_NO":"999","OBJECT_TYPE":"PAYLOAD","TLE_LINE2":"2 46556  53.0528 185.3723 0001704  61.0245 299.0915 15.06406263 93730","COUNTRY_CODE":"US","APOAPSIS":"548.374","OBJECT_NAME":"STARLINK-1676","RCS_SIZE":"LARGE","TLE_LINE1":"1 46556U 20070AA  22164.45975392  .00001254  00000-0  10308-3 0  9991","EPOCH":"2022-06-13T11:02:02.738688","RA_OF_ASC_NODE":"185.3723","MEAN_ANOMALY":"299.0915","PERIAPSIS":"546.014","CLASSIFICATION_TYPE":"U","ECCENTRICITY":"0.00017040","REV_AT_EPOCH":"9373","ARG_OF_PERICENTER":"61.0245","CENTER_NAME":"EARTH","MEAN_MOTION":"15.06406263","GP_ID":"206059948","MEAN_ELEMENT_THEORY":"SGP4","BSTAR":"0.00010308000000"},{"COUNTRY_CODE":"US","OBJECT_TYPE":"PAYLOAD","TLE_LINE2":"2 46557  53.0546 170.1893 0001595  61.9938 298.1212 15.06401835 93951","ELEMENT_SET_NO":"999","REF_FRAME":"TEME","DECAY_DATE":null,"SITE":"AFETR","EPHEMERIS_TYPE":"0","TIME_SYSTEM":"UTC","MEAN_MOTION_DOT":"0.00001022","PERIOD":"95.592","LAUNCH_DATE":"2020-10-06","INCLINATION":"53.0546","OBJECT_ID":"2020-070AB","MEAN_MOTION_DDOT":"0.0000000000000","FILE":"3494620","NORAD_CAT_ID":"46557","SEMIMAJOR_AXIS":"6925.343","BSTAR":"0.00008747200000","GP_ID":"206058696","MEAN_ELEMENT_THEORY":"SGP4","MEAN_MOTION":"15.06401835","CENTER_NAME":"EARTH","REV_AT_EPOCH":"9395","ARG_OF_PERICENTER":"61.9938","ECCENTRICITY":"0.00015950","CLASSIFICATION_TYPE":"U","PERIAPSIS":"546.103","MEAN_ANOMALY":"298.1212","RA_OF_ASC_NODE":"170.1893","EPOCH":"2022-06-13T12:05:05.021376","TLE_LINE1":"1 46557U 20070AB  22164.50353034  .00001022  00000-0  87472-4 0  9991","RCS_SIZE":"LARGE","OBJECT_NAME":"STARLINK-1679","APOAPSIS":"548.313"},{"LAUNCH_DATE":"2020-10-06","MEAN_MOTION_DOT":"0.00001270","TIME_SYSTEM":"UTC","PERIOD":"95.592","SEMIMAJOR_AXIS":"6925.362","NORAD_CAT_ID":"46558","FILE":"3494927","MEAN_MOTION_DDOT":"0.0000000000000","INCLINATION":"53.0536","OBJECT_ID":"2020-070AC","ELEMENT_SET_NO":"999","OBJECT_TYPE":"PAYLOAD","TLE_LINE2":"2 46558  53.0536 169.2373 0001575  56.7361 303.3778 15.06395674 93996","COUNTRY_CODE":"US","EPHEMERIS_TYPE":"0","SITE":"AFETR","REF_FRAME":"TEME","DECAY_DATE":null,"MEAN_ANOMALY":"303.3778","PERIAPSIS":"546.136","ECCENTRICITY":"0.00015750","CLASSIFICATION_TYPE":"U","OBJECT_NAME":"STARLINK-1680","APOAPSIS":"548.318","RA_OF_ASC_NODE":"169.2373","TLE_LINE1":"1 46558U 20070AC  22164.70993831  .00001270  00000-0  10415-3 0  9996","RCS_SIZE":"LARGE","EPOCH":"2022-06-13T17:02:18.669984","MEAN_MOTION":"15.06395674","CENTER_NAME":"EARTH","BSTAR":"0.00010415000000","MEAN_ELEMENT_THEORY":"SGP4","GP_ID":"206068976","ARG_OF_PERICENTER":"56.7361","REV_AT_EPOCH":"9399"},{"MEAN_ANOMALY":"44.8944","PERIAPSIS":"546.326","ECCENTRICITY":"0.00001930","CLASSIFICATION_TYPE":"U","OBJECT_NAME":"STARLINK-1681","APOAPSIS":"546.593","RA_OF_ASC_NODE":"154.3013","EPOCH":"2022-06-13T16:45:20.947968","RCS_SIZE":"LARGE","TLE_LINE1":"1 46559U 20070AD  22164.69815912  .00031089  00000-0  20830-2 0  9990","MEAN_MOTION":"15.06646072","CENTER_NAME":"EARTH","BSTAR":"0.00208300000000","MEAN_ELEMENT_THEORY":"SGP4","GP_ID":"206068974","ARG_OF_PERICENTER":"315.2030","REV_AT_EPOCH":"9419","LAUNCH_DATE":"2020-10-06","TIME_SYSTEM":"UTC","MEAN_MOTION_DOT":"0.00031089","PERIOD":"95.577","FILE":"3494927","NORAD_CAT_ID":"46559","SEMIMAJOR_AXIS":"6924.594","OBJECT_ID":"2020-070AD","INCLINATION":"53.0546","MEAN_MOTION_DDOT":"0.0000000000000","TLE_LINE2":"2 46559  53.0546 154.3013 0000193 315.2030  44.8944 15.06646072 94191","OBJECT_TYPE":"PAYLOAD","ELEMENT_SET_NO":"999","COUNTRY_CODE":"US","SITE":"AFETR","EPHEMERIS_TYPE":"0","REF_FRAME":"TEME","DECAY_DATE":null},{"SITE":"AFETR","EPHEMERIS_TYPE":"0","DECAY_DATE":null,"REF_FRAME":"TEME","OBJECT_TYPE":"PAYLOAD","TLE_LINE2":"2 46560  53.0528 170.3650 0001782  59.8870 300.2295 15.06392039 93947","ELEMENT_SET_NO":"999","COUNTRY_CODE":"US","FILE":"3494620","NORAD_CAT_ID":"46560","SEMIMAJOR_AXIS":"6925.373","INCLINATION":"53.0528","OBJECT_ID":"2020-070AE","MEAN_MOTION_DDOT":"0.0000000000000","LAUNCH_DATE":"2020-10-06","PERIOD":"95.593","TIME_SYSTEM":"UTC","MEAN_MOTION_DOT":"0.00001081","REV_AT_EPOCH":"9394","ARG_OF_PERICENTER":"59.8870","CENTER_NAME":"EARTH","MEAN_MOTION":"15.06392039","MEAN_ELEMENT_THEORY":"SGP4","GP_ID":"206059449","BSTAR":"0.00009150100000","APOAPSIS":"548.472","OBJECT_NAME":"STARLINK-1706","EPOCH":"2022-06-13T11:01:23.713536","TLE_LINE1":"1 46560U 20070AE  22164.45930224  .00001081  00000-0  91501-4 0  9994","RCS_SIZE":"LARGE","RA_OF_ASC_NODE":"170.3650","MEAN_ANOMALY":"300.2295","PERIAPSIS":"546.004","CLASSIFICATION_TYPE":"U","ECCENTRICITY":"0.00017820"}];
